158P/Kowal-LINEAR,e,7.3432,130.7048,201.2208,5.427813,0.0779411,0.10642367,40.5002,06/28.0/2023,2000,g  9.0,4.0
# From MPEC 2021-N06
159P/LONEOS,e,23.4861,54.9416,4.5985,5.852802,0.0696079,0.38266920,129.5474,06/28.0/2023,2000,g 10.0,4.0
# From MPEC 2022-K19
160P/LINEAR,e,15.6079,333.3591,12.7926,3.777262,0.1342575,0.52592432,174.9874,06/28.0/2023,2000,g 15.5,2.0
# From MPC 75721
161P/Hartley-IRAS,e,95.7981,1.5713,47.0492,7.715323,0.0459910,0.83560900,302.5550,06/28.0/2023,2000,g  8.5,6.0
# From MPEC 2023-M14
162P/SidingSpring,e,27.5655,30.8880,357.1966,3.092183,0.1812618,0.58316888,168.8980,06/28.0/2023,2000,g 13.7,4.0
# From MPEC 2021-S45
163P/NEAT,e,12.7181,102.0657,349.5584,3.764216,0.1349560,0.45279845,191.9408,06/28.0/2023,2000,g 14.5,4.0
# From MPEC 2021-F20
164P/Christensen,e,16.2724,88.2650,325.8884,3.653855,0.1411163,0.54107968,261.3040,06/28.0/2023,2000,g 11.0,4.0
# From MPC 75721
165P/LINEAR,e,15.8958,0.8467,125.7694,17.83160,0.0130894,0.61705261,110.4336,06/28.0/2023,2000,g 11.5,2.0
# From MPC 75722
166P/NEAT,e,15.3872,64.3353,321.7202,13.81819,0.0191879,0.38458641,147.5844,06/28.0/2023,2000,g  5.5,4.0
# From MPEC 2023-J29
167P/CINEOS,e,19.0981,295.7562,344.7847,16.25373,0.0150409,0.26927034,121.7603,06/28.0/2023,2000,g  9.5,2.0
# From MPEC 2023-J29
168P/Hergenrother,e,21.6124,355.4305,15.0510,3.587023,0.1450784,0.62166484,205.8269,06/28.0/2023,2000,g 15.5,4.0
# From MPEC 2023-J95
169P/NEAT,e,11.2977,176.1006,218.0603,2.602861,0.2347079,0.76834470,82.9228,06/28.0/2023,2000,g 16.0,2.0
# From MPEC 2023-A50
170P/Christensen,e,10.1136,142.8776,225.3459,4.212305,0.1140051,0.30590376,7.9515,06/28.0/2023,2000,g 12.0,4.0
# From MPC102102
171P/Spahr,e,21.9492,101.6889,347.0488,3.553475,0.1471377,0.50230202,239.3102,06/28.0/2023,2000,g 13.5,4.0
# From MPEC 2023-J95
172P/Yeung,e,11.2253,30.8748,209.1852,4.218135,0.1137689,0.20449692,262.1462,06/28.0/2023,2000,g 13.0,4.0
# From MPEC 2023-KD6
173P/Mueller,e,16.4892,100.3738,29.1552,5.710563,0.0722247,0.26165615,40.3423,06/28.0/2023,2000,g  7.5,4.0
# From MPC 92985
174P/Echeclus,e,4.3438,173.1909,163.4518,10.74791,0.0279716,0.45667876,83.4873,06/28.0/2023,2000,g  9.4,2.0
# From MPC114608
175P/Hergenrother,e,4.9103,110.8388,74.9181,3.653619,0.1411299,0.38592478,196.5130,06/28.0/2023,2000,g 14.0,4.0
# From MPC 89015
176P/LINEAR,e,0.2313,345.7561,34.3758,3.195491,0.1725431,0.19253631,37.8839,06/28.0/2023,2000,g 15.1,2.0
# From MPEC 2020-L06
177P/Barnard,e,31.0758,271.8370,60.6959,24.50107,0.0081269,0.95504443,49.8905,06/28.0/2023,2000,g 15.0,4.0
# From MPEC 2021-F20
178P/Hug-Bell,e,11.0879,102.8219,297.8724,3.632736,0.1423487,0.48251925,153.1260,06/28.0/2023,2000,g 14.6,4.0
# From MPEC 2023-HD1
179P/Jedicke,e,19.8969,115.5150,297.0184,5.932932,0.0682025,0.30583231,26.8014,06/28.0/2023,2000,g 12.5,4.0
# From MPEC 2023-M14
180P/NEAT,e,16.8600,84.5656,94.6651,3.867768,0.1295727,0.35341747,358.1624,06/28.0/2023,2000,g 11.0,4.0
# From MPC 89012
181P/Shoemaker-Levy,e,17.4864,35.3942,336.2846,3.876123,0.1291540,0.70053351,69.1287,06/28.0/2023,2000,g 11.5,4.0
# From MPEC 2014-J10
182P/LONEOS,e,16.2298,72.4583,54.2135,2.950041,0.1945190,0.66330724,80.0913,06/28.0/2023,2000,g 18.0,4.0
# From MPEC 2023-A50
183P/Korlevic-Juric,e,18.9228,3.9778,166.6468,4.666994,0.0977571,0.10673932,206.2987,06/28.0/2023,2000,g 12.5,2.0
# From MPEC 2020-W26
184P/Lovas,e,4.5737,173.2412,186.5660,3.797957,0.1331616,0.55082131,129.7872,06/28.0/2023,2000,g 13.5,4.0
# From MPEC 2023-MA9
185P/Petriew,e,14.0146,214.1144,181.8880,3.098364,0.1807197,0.69974416,357.3075,06/28.0/2023,2000,g 15.0,4.0
# From MPEC 2022-X67
186P/Garradd,e,28.6435,326.2720,269.3978,4.853295,0.0921826,0.12419068,151.1373,06/28.0/2023,2000,g  7.5,4.0
# From MPEC 2020-SI8
187P/LINEAR,e,13.6398,109.8740,131.2524,4.563488,0.1011018,0.15280576,189.5514,06/28.0/2023,2000,g  9.0,4.0
# From MPEC 2023-J29
188P/LINEAR-Mueller,e,10.5250,358.9577,26.6689,4.369830,0.1078965,0.41688259,249.9704,06/28.0/2023,2000,g 11.5,4.0
# From MPEC 2022-QD9
189P/NEAT,e,20.0746,281.6858,16.3231,2.945036,0.1950151,0.58884948,59.1201,06/28.0/2023,2000,g 19.0,4.0
# From MPEC 2020-K19
190P/Mueller,e,2.1742,335.5221,50.4401,4.229461,0.1133122,0.52225526,298.2418,06/28.0/2023,2000,g 13.0,4.0
# From MPEC 2022-X67
191P/McNaught,e,8.8393,98.2117,284.1672,3.638266,0.1420242,0.38593245,117.8089,06/28.0/2023,2000,g 13.0,4.0
# From MPC 75724
192P/Shoemaker-Levy,e,24.5884,51.6116,313.0690,6.464725,0.0599624,0.77340761,340.1311,06/28.0/2023,2000,g 15.0,4.0
# From MPEC 2022-Y15
193P/LINEAR-NEAT,e,10.6872,335.1804,8.1148,3.577117,0.1456815,0.39352438,97.8807,06/28.0/2023,2000,g 14.0,4.0
# From MPEC 2023-J29
194P/LINEAR,e,11.8106,349.5430,128.5100,4.124219,0.1176770,0.56363235,334.0028,06/28.0/2023,2000,g 16.0,4.0
# From MPEC 2023-D72
195P/Hill,e,36.3648,243.1067,249.4159,6.505466,0.0594000,0.31497630,314.8561,06/28.0/2023,2000,g  8.5,4.0
# From MPEC 2022-YN2
196P/Tichy,e,19.3017,24.1122,12.0417,3.803229,0.1328848,0.42801225,32.1184,06/28.0/2023,2000,g 13.5,4.0
# From MPC 94676
197P/LINEAR,e,25.5299,66.3526,188.7807,2.868943,0.2028249,0.62942162,41.0220,06/28.0/2023,2000,g 16.5,2.0
# From NK 1596
198P/ODAS,e,1.3385,358.2040,69.2405,3.595730,0.1445518,0.44449209,239.3361,06/28.0/2023,2000,g  9.0,4.0
# From MPEC 2023-MA9
199P/Shoemaker,e,24.9373,92.3471,191.7752,5.882064,0.0690891,0.50521488,357.1962,06/28.0/2023,2000,g 10.0,4.0
# From MPEC 2022-C56
200P/Larsen,e,12.0985,234.7315,134.3647,4.947551,0.0895610,0.33246046,127.9614,06/28.0/2023,2000,g  9.0,4.0
# From MPC 93588
201P/LONEOS,e,5.7393,19.7437,41.5473,3.354745,0.1604038,0.63744211,122.2364,06/28.0/2023,2000,g 14.0,4.0
# From MPEC 2022-X67
202P/Scotti,e,2.1420,177.3452,274.4725,4.117946,0.1179460,0.25496753,321.7712,06/28.0/2023,2000,g 13.5,4.0
# From MPEC 2021-S45
203P/Korlevic,e,2.9733,290.2722,154.7958,4.669137,0.0976898,0.31590697,118.1852,06/28.0/2023,2000,g 14.5,2.0
# From MPEC 2023-KD6
204P/LINEAR-NEAT,e,6.5959,108.4964,356.6640,3.582396,0.1453596,0.48793915,32.4323,06/28.0/2023,2000,g 14.0,4.0
# From MPEC 2023-A50
205P/Giacobini,e,15.3061,179.6041,154.1781,3.542063,0.1478494,0.56787389,78.4201,06/28.0/2023,2000,g 13.0,4.0
# From MPC 75725
206P/Barnard-Boattini,e,33.6409,202.3306,189.5473,3.490389,0.1511448,0.55152455,127.7535,06/28.0/2023,2000,g 19.0,4.0
# From MPC 75725
207P/NEAT,e,10.2016,198.1600,273.0048,3.881607,0.1288804,0.75838176,331.9287,06/28.0/2023,2000,g 16.0,4.0
# From MPEC 2022-K19
208P/McMillan,e,4.4125,36.3397,310.6237,4.040809,0.1213393,0.37409083,308.7067,06/28.0/2023,2000,g 12.5,4.0
# From MPEC 2023-CD7
209P/LINEAR,e,21.2775,62.7658,152.4597,2.959331,0.1936038,0.67376375,285.9348,06/28.0/2023,2000,g 17.0,2.0
# From MPC105242
210P/Christensen,e,10.2783,93.8001,345.9079,3.162774,0.1752273,0.83378381,206.0210,06/28.0/2023,2000,g 13.5,4.0
# From MPEC 2023-KD6
211P/Hill,e,18.9184,117.1266,4.2982,3.548247,0.1474631,0.34403037,39.2752,06/28.0/2023,2000,g 12.5,4.0
# From MPEC 2021-F20
212P/NEAT,e,22.1437,98.0152,14.0261,3.901887,0.1278769,0.58696477,321.3672,06/28.0/2023,2000,g 17.0,2.0
# From MPEC 2022-GA9
213P/VanNess,e,10.3810,311.2752,5.7738,3.345474,0.1610711,0.40804499,337.9744,06/28.0/2023,2000,g 10.5,4.0
# From MPC 92986
214P/LINEAR,e,15.1829,348.2450,190.1645,3.619221,0.1431467,0.48586288,39.3403,06/28.0/2023,2000,g 13.0,4.0
# From MPEC 2023-B57
215P/NEAT,e,10.5769,56.6766,262.4195,4.331874,0.1093177,0.16591665,143.9631,06/28.0/2023,2000,g 11.0,4.0
# From MPC100284
216P/LINEAR,e,9.0634,359.7986,151.7211,3.857187,0.1301062,0.44852273,334.9096,06/28.0/2023,2000,g 13.0,4.0
# From MPEC 2023-J29
217P/LINEAR,e,12.8621,125.4107,246.9646,3.947932,0.1256463,0.68930522,272.4507,06/28.0/2023,2000,g 12.0,4.0
# From MPEC 2022-K19
218P/LINEAR,e,2.7306,176.0121,59.5238,3.086445,0.1817675,0.62400089,181.1824,06/28.0/2023,2000,g 16.0,4.0
# From MPEC 2023-MA9
219P/LINEAR,e,11.5398,230.9529,107.5981,3.645793,0.1415846,0.35404639,327.3312,06/28.0/2023,2000,g 11.0,4.0
# From MPEC 2021-BE3
220P/McNaught,e,8.1266,150.1065,180.6111,3.118111,0.1790056,0.50116754,166.3958,06/28.0/2023,2000,g 15.0,4.0
# From MPEC 2022-UY9
221P/LINEAR,e,11.4821,229.5780,40.0147,3.454272,0.1535215,0.49506887,85.4046,06/28.0/2023,2000,g 14.5,4.0
# From MPC 92277
222P/LINEAR,e,5.0975,6.7738,346.2855,2.898355,0.1997454,0.71475448,296.1070,06/28.0/2023,2000,g 20.0,4.0
# From MPEC 2023-A50
223P/Skiff,e,27.0197,346.7609,37.8826,4.158514,0.1162243,0.41656616,187.2092,06/28.0/2023,2000,g 12.0,4.0
# From MPEC 2023-BF4
224P/LINEAR-NEAT,e,13.3058,40.0377,16.6959,3.443924,0.1542140,0.40584761,41.7892,06/28.0/2023,2000,g 15.5,4.0
# From MPC 75727
225P/LINEAR,e,21.3667,14.2044,3.9147,3.648627,0.1414197,0.63854695,354.1934,06/28.0/2023,2000,g 18.0,4.0
# From MPC106349
226P/Pigott-LINEAR-Kowalski,e,44.0446,54.0131,341.0800,3.766121,0.1348537,0.52902782,335.4219,06/28.0/2023,2000,g 12.5,4.0
# From MPC102956
227P/Catalina-LINEAR,e,7.5092,36.8114,105.5144,3.439071,0.1545405,0.52778543,320.7253,06/28.0/2023,2000,g 16.5,2.0
# From MPEC 2022-HC2
228P/LINEAR,e,7.9132,30.9851,114.8040,4.166022,0.1159102,0.17643805,139.9217,06/28.0/2023,2000,g 14.1,4.0
# From MPC106349
229P/Gibbs,e,26.0921,157.8963,224.1022,3.925550,0.1267224,0.37799568,281.8762,06/28.0/2023,2000,g 13.0,4.0
# From MPEC 2023-KD6
230P/LINEAR,e,15.4680,106.9699,313.4773,3.453203,0.1535928,0.54563203,71.5104,06/28.0/2023,2000,g 13.0,4.0
# From MPEC 2022-K19
231P/LINEAR-NEAT,e,12.2852,132.9338,44.1905,4.050167,0.1209190,0.24189297,178.5689,06/28.0/2023,2000,g 14.5,2.0
# From MPC112394
232P/Hill,e,14.6437,56.0273,53.2180,4.474202,0.1041432,0.33504961,160.7874,06/28.0/2023,2000,g 11.5,4.0
# From MPEC 2021-N06
233P/La Sagra,e,11.2897,74.9186,26.9562,3.028095,0.1870466,0.41238641,186.8922,06/28.0/2023,2000,g 15.0,4.0
# From MPEC 2022-K19
234P/LINEAR,e,11.5355,179.5696,357.3740,3.795724,0.1332791,0.25661570,295.5625,06/28.0/2023,2000,g 12.0,4.0
# From MPC110497
235P/LINEAR,e,10.8765,202.4576,342.4590,3.616664,0.1432985,0.42100834,234.8772,06/28.0/2023,2000,g 12.0,4.0
# From MPEC 2023-J29
